ONEWEB-0198             
1 48216U 21031G   23304.00097708 -.00000089  00000+0 -27363-3 0  9993
2 48216  87.8935 120.8636 0001098  94.0458 266.0797 13.14504786122323
ONEWEB-0189             
1 48217U 21031H   23304.24201421  .00000035  00000+0  58696-4 0  9992
2 48217  87.8933 120.7931 0001067  98.8069 261.3182 13.14500482122117
ONEWEB-0196             
1 48218U 21031J   23303.91638632 -.00000185  00000+0 -53363-3 0  9997
2 48218  87.8937 120.8543 0001418  87.2632 272.8660 13.14505476122071
ONEWEB-0183             
1 48219U 21031K   23303.88891753  .00000042  00000+0  79882-4 0  9994
2 48219  87.8939 120.8797 0001571  93.3247 266.8062 13.14502073122164
ONEWEB-0185             
1 48220U 21031L   23304.52640169 -.00000201  00000+0 -57637-3 0  9993
2 48220  87.8938 120.7270 0001575  96.8718 263.2590 13.14500960122176
ONEWEB-0187             
1 48221U 21031M   23304.50101864 -.00006439  00000+0 -17408-1 0  9995
2 48221  87.8936 120.7610 0001575  99.6505 260.4802 13.14533232122182
ONEWEB-0192             
1 48222U 21031N   23303.86565360  .00000309  00000+0  80014-3 0  9992
2 48222  87.8977 120.8615 0001407  88.1931 271.9360 13.14501589122012
ONEWEB-0219             
1 48223U 21031P   23304.53168576 -.00000160  00000+0 -46724-3 0  9993
2 48223  87.8935 120.7292 0001505  97.0925 263.0376 13.14503302122315
